start=new Date('2021-10-11T00:00:00.000Z').valueOf();
sats=[{"RA_OF_ASC_NODE":"248.9667","SEMIMAJOR_AXIS":"6925.311","SITE":"AFETR","MEAN_MOTION_DOT":"0.00002812","PERIAPSIS":"546.082","NORAD_CAT_ID":"47730","MEAN_ELEMENT_THEORY":"SGP4","BSTAR":"0.00020751000000","APOAPSIS":"548.269","MEAN_ANOMALY":"285.4441","PERIOD":"95.591","OBJECT_ID":"2021-017J","TLE_LINE1":"1 47730U 21017J   21283.62508305  .00002812  00000-0  20751-3 0  9998","OBJECT_NAME":"STARLINK-2140","ARG_OF_PERICENTER":"74.6722","TIME_SYSTEM":"UTC","GP_ID":"186840853","LAUNCH_DATE":"2021-03-04","RCS_SIZE":"LARGE","EPOCH":"2021-10-10T15:00:07.175520","ECCENTRICITY":"0.00015790","EPHEMERIS_TYPE":"0","INCLINATION":"53.0558","CLASSIFICATION_TYPE":"U","COUNTRY_CODE":"US","FILE":"3155694","DECAY_DATE":null,"REV_AT_EPOCH":"3483","TLE_LINE2":"2 47730  53.0558 248.9667 0001579  74.6722 285.4441 15.06412294 34831","CENTER_NAME":"EARTH","OBJECT_TYPE":"PAYLOAD","MEAN_MOTION":"15.06412294","REF_FRAME":"TEME","MEAN_MOTION_DDOT":"0.0000000000000","ELEMENT_SET_NO":"999"},{"GP_ID":"186839601","LAUNCH_DATE":"2021-03-04","OBJECT_NAME":"STARLINK-2141","TIME_SYSTEM":"UTC","ARG_OF_PERICENTER":"80.2631","OBJECT_ID":"2021-017K","TLE_LINE1":"1 47731U 21017K   21283.63202462  .00000099  00000-0  25550-4 0  9993","PERIOD":"95.592","MEAN_ANOMALY":"279.8507","MEAN_ELEMENT_THEORY":"SGP4","BSTAR":"0.00002555000000","APOAPSIS":"548.123","NORAD_CAT_ID":"47731","PERIAPSIS":"546.300","RA_OF_ASC_NODE":"243.9336","SITE":"AFETR","SEMIMAJOR_AXIS":"6925.347","MEAN_MOTION_DOT":"0.00000099","REF_FRAME":"TEME","ELEMENT_SET_NO":"999","MEAN_MOTION_DDOT":"0.0000000000000","OBJECT_TYPE":"PAYLOAD","CENTER_NAME":"EARTH","MEAN_MOTION":"15.06400571","TLE_LINE2":"2 47731  53.0554 243.9336 0001316  80.2631 279.8507 15.06400571 34911","FILE":"3155694","DECAY_DATE":null,"REV_AT_EPOCH":"3491","COUNTRY_CODE":"US","INCLINATION":"53.0554","CLASSIFICATION_TYPE":"U","ECCENTRICITY":"0.00013160","EPHEMERIS_TYPE":"0","EPOCH":"2021-10-10T15:10:06.927168","RCS_SIZE":"LARGE"},{"ELEMENT_SET_NO":"999","MEAN_MOTION_DDOT":"0.0000000000000","REF_FRAME":"TEME","MEAN_MOTION":"15.73252246","OBJECT_TYPE":"PAYLOAD","CENTER_NAME":"EARTH","TLE_LINE2":"2 47732  53.0403 168.1449 0003698  12.2379 347.8728 15.73252246 35995","REV_AT_EPOCH":"3599","DECAY_DATE":null,"FILE":"3155694","COUNTRY_CODE":"US","CLASSIFICATION_TYPE":"U","INCLINATION":"53.0403","ECCENTRICITY":"0.00036980","EPHEMERIS_TYPE":"0","EPOCH":"2021-10-10T21:04:40.582272","RCS_SIZE":"LARGE","LAUNCH_DATE":"2021-03-04","GP_ID":"186839851","TIME_SYSTEM":"UTC","ARG_OF_PERICENTER":"12.2379","OBJECT_NAME":"STARLINK-2142","OBJECT_ID":"2021-017L","TLE_LINE1":"1 47732U 21017L   21283.87824748  .00019583  00000-0  14326-3 0  9993","PERIOD":"91.530","MEAN_ANOMALY":"347.8728","BSTAR":"0.00014326000000","APOAPSIS":"352.099","MEAN_ELEMENT_THEORY":"SGP4","NORAD_CAT_ID":"47732","PERIAPSIS":"347.123","SEMIMAJOR_AXIS":"6727.746","SITE":"AFETR","MEAN_MOTION_DOT":"0.00019583","RA_OF_ASC_NODE":"168.1449"},{"FILE":"3155694","DECAY_DATE":null,"REV_AT_EPOCH":"3481","TLE_LINE2":"2 47733  53.0561 254.0835 0001695  68.7398 291.3771 15.06403664 34816","OBJECT_TYPE":"PAYLOAD","CENTER_NAME":"EARTH","MEAN_MOTION":"15.06403664","REF_FRAME":"TEME","MEAN_MOTION_DDOT":"0.0000000000000","ELEMENT_SET_NO":"999","RCS_SIZE":"LARGE","EPOCH":"2021-10-10T14:52:52.244832","ECCENTRICITY":"0.00016950","EPHEMERIS_TYPE":"0","INCLINATION":"53.0561","CLASSIFICATION_TYPE":"U","COUNTRY_CODE":"US","PERIOD":"95.592","MEAN_ANOMALY":"291.3771","OBJECT_ID":"2021-017M","TLE_LINE1":"1 47733U 21017M   21283.62004913  .00000048  00000-0  22105-4 0  9992","OBJECT_NAME":"STARLINK-2143","ARG_OF_PERICENTER":"68.7398","TIME_SYSTEM":"UTC","GP_ID":"186841102","LAUNCH_DATE":"2021-03-04","RA_OF_ASC_NODE":"254.0835","SEMIMAJOR_AXIS":"6925.337","SITE":"AFETR","MEAN_MOTION_DOT":"0.00000048","PERIAPSIS":"546.028","NORAD_CAT_ID":"47733","MEAN_ELEMENT_THEORY":"SGP4","BSTAR":"0.00002210500000","APOAPSIS":"548.376"},{"MEAN_ANOMALY":"299.5335","PERIOD":"95.592","OBJECT_ID":"2021-017N","TLE_LINE1":"1 47734U 21017N   21283.30766460 -.00000126  00000-0  10471-4 0  9991","TIME_SYSTEM":"UTC","ARG_OF_PERICENTER":"60.5819","OBJECT_NAME":"STARLINK-2144","LAUNCH_DATE":"2021-03-04","GP_ID":"186782229","SEMIMAJOR_AXIS":"6925.347","SITE":"AFETR","MEAN_MOTION_DOT":"-0.00000126","RA_OF_ASC_NODE":"245.3889","PERIAPSIS":"546.068","NORAD_CAT_ID":"47734","BSTAR":"0.00001047100000","APOAPSIS":"548.356","MEAN_ELEMENT_THEORY":"SGP4","REV_AT_EPOCH":"3487","DECAY_DATE":null,"FILE":"3155126","TLE_LINE2":"2 47734  53.0555 245.3889 0001652  60.5819 299.5335 15.06400426 34878","MEAN_MOTION":"15.06400426","CENTER_NAME":"EARTH","OBJECT_TYPE":"PAYLOAD","ELEMENT_SET_NO":"999","MEAN_MOTION_DDOT":"0.0000000000000","REF_FRAME":"TEME","EPOCH":"2021-10-10T07:23:02.221440","RCS_SIZE":"LARGE","EPHEMERIS_TYPE":"0","ECCENTRICITY":"0.00016520","CLASSIFICATION_TYPE":"U","INCLINATION":"53.0555","COUNTRY_CODE":"US"},{"PERIAPSIS":"437.202","SEMIMAJOR_AXIS":"6816.373","SITE":"AFETR","MEAN_MOTION_DOT":"-0.00424790","RA_OF_ASC_NODE":"169.8099","BSTAR":"-0.01012600000000","APOAPSIS":"439.274","MEAN_ELEMENT_THEORY":"SGP4","NORAD_CAT_ID":"47735","TLE_LINE1":"1 47735U 21017P   21283.90922625 -.00424790  00000-0 -10126-1 0  9997","OBJECT_ID":"2021-017P","MEAN_ANOMALY":"252.7155","PERIOD":"93.345","LAUNCH_DATE":"2021-03-04","GP_ID":"186840101","ARG_OF_PERICENTER":"107.4016","TIME_SYSTEM":"UTC","OBJECT_NAME":"STARLINK-2146","EPHEMERIS_TYPE":"0","ECCENTRICITY":"0.00015200","RCS_SIZE":"LARGE","EPOCH":"2021-10-10T21:49:17.148000","COUNTRY_CODE":"US","INCLINATION":"53.0409","CLASSIFICATION_TYPE":"U","TLE_LINE2":"2 47735  53.0409 169.8099 0001520 107.4016 252.7155 15.42668845 35967","REV_AT_EPOCH":"3596","FILE":"3155694","DECAY_DATE":null,"MEAN_MOTION_DDOT":"0.0000000000000","ELEMENT_SET_NO":"999","REF_FRAME":"TEME","MEAN_MOTION":"15.42668845","CENTER_NAME":"EARTH","OBJECT_TYPE":"PAYLOAD"},{"NORAD_CAT_ID":"47736","MEAN_ELEMENT_THEORY":"SGP4","APOAPSIS":"548.331","BSTAR":"-0.00000144900000","RA_OF_ASC_NODE":"235.5281","SITE":"AFETR","SEMIMAJOR_AXIS":"6925.352","MEAN_MOTION_DOT":"-0.00000303","PERIAPSIS":"546.103","OBJECT_NAME":"STARLINK-2147","TIME_SYSTEM":"UTC","ARG_OF_PERICENTER":"76.7992","GP_ID":"186782729","LAUNCH_DATE":"2021-03-04","PERIOD":"95.592","MEAN_ANOMALY":"283.3176","TLE_LINE1":"1 47736U 21017Q   21283.27540119 -.00000303  00000-0 -14490-5 0  9994","OBJECT_ID":"2021-017Q","INCLINATION":"53.0569","CLASSIFICATION_TYPE":"U","COUNTRY_CODE":"US","EPOCH":"2021-10-10T06:36:34.662816","RCS_SIZE":"LARGE","ECCENTRICITY":"0.00016090","EPHEMERIS_TYPE":"0","OBJECT_TYPE":"PAYLOAD","CENTER_NAME":"EARTH","MEAN_MOTION":"15.06398928","REF_FRAME":"TEME","ELEMENT_SET_NO":"999","MEAN_MOTION_DDOT":"0.0000000000000","DECAY_DATE":null,"FILE":"3155126","REV_AT_EPOCH":"3504","TLE_LINE2":"2 47736  53.0569 235.5281 0001609  76.7992 283.3176 15.06398928 35042"},{"RA_OF_ASC_NODE":"173.1220","SEMIMAJOR_AXIS":"6808.189","SITE":"AFETR","MEAN_MOTION_DOT":"-0.00390425","PERIAPSIS":"429.105","NORAD_CAT_ID":"47737","MEAN_ELEMENT_THEORY":"SGP4","BSTAR":"-0.00842760000000","APOAPSIS":"431.003","PERIOD":"93.177","MEAN_ANOMALY":"46.0462","TLE_LINE1":"1 47737U 21017R   21283.16554934 -.00390425  00000-0 -84276-2 0  9996","OBJECT_ID":"2021-017R","OBJECT_NAME":"STARLINK-2148","TIME_SYSTEM":"UTC","ARG_OF_PERICENTER":"314.0428","GP_ID":"186783481","LAUNCH_DATE":"2021-03-04","EPOCH":"2021-10-10T03:58:23.462976","RCS_SIZE":"LARGE","EPHEMERIS_TYPE":"0","ECCENTRICITY":"0.00013940","INCLINATION":"53.0408","CLASSIFICATION_TYPE":"U","COUNTRY_CODE":"US","DECAY_DATE":null,"FILE":"3155126","REV_AT_EPOCH":"3590","TLE_LINE2":"2 47737  53.0408 173.1220 0001394 314.0428  46.0462 15.45451512 35907","CENTER_NAME":"EARTH","OBJECT_TYPE":"PAYLOAD","MEAN_MOTION":"15.45451512","REF_FRAME":"TEME","ELEMENT_SET_NO":"999","MEAN_MOTION_DDOT":"0.0000000000000"},{"TLE_LINE2":"2 47738  53.0545 234.2896 0005168 232.1921 127.8600 15.06429461 35085","REV_AT_EPOCH":"3508","FILE":"3155694","DECAY_DATE":null,"ELEMENT_SET_NO":"999","MEAN_MOTION_DDOT":"0.0000000000000","REF_FRAME":"TEME","MEAN_MOTION":"15.06429461","CENTER_NAME":"EARTH","OBJECT_TYPE":"PAYLOAD","EPHEMERIS_TYPE":"0","ECCENTRICITY":"0.00051680","EPOCH":"2021-10-10T13:19:55.129152","RCS_SIZE":"LARGE","COUNTRY_CODE":"US","INCLINATION":"53.0545","CLASSIFICATION_TYPE":"U","TLE_LINE1":"1 47738U 21017S   21283.55549918  .00002249  00000-0  16975-3 0  9990","OBJECT_ID":"2021-017S","PERIOD":"95.590","MEAN_ANOMALY":"127.8600","LAUNCH_DATE":"2021-03-04","GP_ID":"186840854","TIME_SYSTEM":"UTC","ARG_OF_PERICENTER":"232.1921","OBJECT_NAME":"STARLINK-2149","PERIAPSIS":"543.544","SITE":"AFETR","MEAN_MOTION_DOT":"0.00002249","SEMIMAJOR_AXIS":"6925.258","RA_OF_ASC_NODE":"234.2896","BSTAR":"0.00016975000000","APOAPSIS":"550.702","MEAN_ELEMENT_THEORY":"SGP4","NORAD_CAT_ID":"47738"},{"ELEMENT_SET_NO":"999","MEAN_MOTION_DDOT":"0.0000000000000","REF_FRAME":"TEME","MEAN_MOTION":"15.06406053","OBJECT_TYPE":"PAYLOAD","CENTER_NAME":"EARTH","TLE_LINE2":"2 47739  53.0541 258.7734 0001502  77.9022 282.2135 15.06406053 34753","REV_AT_EPOCH":"3475","DECAY_DATE":null,"FILE":"3155694","COUNTRY_CODE":"US","CLASSIFICATION_TYPE":"U","INCLINATION":"53.0541","ECCENTRICITY":"0.00015020","EPHEMERIS_TYPE":"0","EPOCH":"2021-10-10T16:03:50.770368","RCS_SIZE":"LARGE","LAUNCH_DATE":"2021-03-04","GP_ID":"186839602","TIME_SYSTEM":"UTC","ARG_OF_PERICENTER":"77.9022","OBJECT_NAME":"STARLINK-2150","TLE_LINE1":"1 47739U 21017T   21283.66933762  .00000140  00000-0  28322-4 0  9995","OBJECT_ID":"2021-017T","PERIOD":"95.592","MEAN_ANOMALY":"282.2135","BSTAR":"0.00002832200000","APOAPSIS":"548.235","MEAN_ELEMENT_THEORY":"SGP4","NORAD_CAT_ID":"47739","PERIAPSIS":"546.155","MEAN_MOTION_DOT":"0.00000140","SITE":"AFETR","SEMIMAJOR_AXIS":"6925.330","RA_OF_ASC_NODE":"258.7734"}];
